[{"OBJECT_NAME":"STARLINK-34319","OBJECT_ID":"2025-120N","EPOCH":"2025-09-09T05:24:31.612032","MEAN_MOTION":15.30223354,"ECCENTRICITY":0.00013498,"INCLINATION":53.1616,"RA_OF_ASC_NODE":239.5396,"ARG_OF_PERICENTER":99.7132,"MEAN_ANOMALY":260.4021,"EPHEMERIS_TYPE":0,"CLASSIFICATION_TYPE":"U","NORAD_CAT_ID":64268,"ELEMENT_SET_NO":999,"REV_AT_EPOCH":1613,"BSTAR":0.0010717475,"MEAN_MOTION_DOT":0.00031541,"MEAN_MOTION_DDOT":0},{"OBJECT_NAME":"STARLINK-34298","OBJECT_ID":"2025-120P","EPOCH":"2025-09-09T05:41:24.116352","MEAN_MOTION":15.39637487,"ECCENTRICITY":0.00013081,"INCLINATION":53.158,"RA_OF_ASC_NODE":239.6166,"ARG_OF_PERICENTER":75.1171,"MEAN_ANOMALY":284.9979,"EPHEMERIS_TYPE":0,"CLASSIFICATION_TYPE":"U","NORAD_CAT_ID":64269,"ELEMENT_SET_NO":999,"REV_AT_EPOCH":1603,"BSTAR":0.00075946501,"MEAN_MOTION_DOT":0.00030116,"MEAN_MOTION_DDOT":0},{"OBJECT_NAME":"STARLINK-34219","OBJECT_ID":"2025-120Q","EPOCH":"2025-09-09T04:33:01.405440","MEAN_MOTION":15.30226423,"ECCENTRICITY":0.00012653,"INCLINATION":53.1578,"RA_OF_ASC_NODE":240.0278,"ARG_OF_PERICENTER":93.631,"MEAN_ANOMALY":266.4835,"EPHEMERIS_TYPE":0,"CLASSIFICATION_TYPE":"U","NORAD_CAT_ID":64270,"ELEMENT_SET_NO":999,"REV_AT_EPOCH":1612,"BSTAR":0.0011348126,"MEAN_MOTION_DOT":0.0003343,"MEAN_MOTION_DDOT":0},{"OBJECT_NAME":"STARLINK-34342","OBJECT_ID":"2025-120R","EPOCH":"2025-09-09T06:00:04.000320","MEAN_MOTION":15.3014404,"ECCENTRICITY":0.0001273,"INCLINATION":53.1603,"RA_OF_ASC_NODE":239.5447,"ARG_OF_PERICENTER":61.0936,"MEAN_ANOMALY":16.8882,"EPHEMERIS_TYPE":0,"CLASSIFICATION_TYPE":"U","NORAD_CAT_ID":64271,"ELEMENT_SET_NO":999,"REV_AT_EPOCH":590,"BSTAR":0.00052720576,"MEAN_MOTION_DOT":0.0001526,"MEAN_MOTION_DDOT":0},{"OBJECT_NAME":"STARLINK-34001","OBJECT_ID":"2025-120S","EPOCH":"2025-09-09T06:00:04.000320","MEAN_MOTION":15.3018348,"ECCENTRICITY":0.00013744,"INCLINATION":53.1587,"RA_OF_ASC_NODE":239.7974,"ARG_OF_PERICENTER":101.4309,"MEAN_ANOMALY":208.5864,"EPHEMERIS_TYPE":0,"CLASSIFICATION_TYPE":"U","NORAD_CAT_ID":64272,"ELEMENT_SET_NO":999,"REV_AT_EPOCH":585,"BSTAR":0.00016224906,"MEAN_MOTION_DOT":4.447e-5,"MEAN_MOTION_DDOT":0},{"OBJECT_NAME":"STARLINK-34334","OBJECT_ID":"2025-120T","EPOCH":"2025-09-09T06:41:56.343840","MEAN_MOTION":15.3965159,"ECCENTRICITY":0.00012827,"INCLINATION":53.158,"RA_OF_ASC_NODE":239.1654,"ARG_OF_PERICENTER":91.1243,"MEAN_ANOMALY":268.9909,"EPHEMERIS_TYPE":0,"CLASSIFICATION_TYPE":"U","NORAD_CAT_ID":64273,"ELEMENT_SET_NO":999,"REV_AT_EPOCH":1614,"BSTAR":0.00076967756,"MEAN_MOTION_DOT":0.00030542,"MEAN_MOTION_DDOT":0},{"OBJECT_NAME":"STARLINK-34272","OBJECT_ID":"2025-120U","EPOCH":"2025-09-09T06:04:01.969248","MEAN_MOTION":15.30200215,"ECCENTRICITY":0.00011156,"INCLINATION":53.1594,"RA_OF_ASC_NODE":239.7134,"ARG_OF_PERICENTER":85.32,"MEAN_ANOMALY":274.7928,"EPHEMERIS_TYPE":0,"CLASSIFICATION_TYPE":"U","NORAD_CAT_ID":64274,"ELEMENT_SET_NO":999,"REV_AT_EPOCH":1603,"BSTAR":0.00045559985,"MEAN_MOTION_DOT":0.00013158,"MEAN_MOTION_DDOT":0},{"OBJECT_NAME":"STARLINK-34293","OBJECT_ID":"2025-120V","EPOCH":"2025-09-09T06:08:35.669760","MEAN_MOTION":15.30208451,"ECCENTRICITY":0.00012157,"INCLINATION":53.1573,"RA_OF_ASC_NODE":239.7319,"ARG_OF_PERICENTER":86.7217,"MEAN_ANOMALY":273.3922,"EPHEMERIS_TYPE":0,"CLASSIFICATION_TYPE":"U","NORAD_CAT_ID":64275,"ELEMENT_SET_NO":999,"REV_AT_EPOCH":1607,"BSTAR":0.00032585676,"MEAN_MOTION_DOT":9.306e-5,"MEAN_MOTION_DDOT":0},{"OBJECT_NAME":"STARLINK-34350","OBJECT_ID":"2025-120W","EPOCH":"2025-09-09T06:00:04.000320","MEAN_MOTION":15.30188793,"ECCENTRICITY":0.00016172,"INCLINATION":53.1591,"RA_OF_ASC_NODE":239.2992,"ARG_OF_PERICENTER":88.9577,"MEAN_ANOMALY":111.1607,"EPHEMERIS_TYPE":0,"CLASSIFICATION_TYPE":"U","NORAD_CAT_ID":64276,"ELEMENT_SET_NO":999,"REV_AT_EPOCH":589,"BSTAR":0.00013637908,"MEAN_MOTION_DOT":3.68e-5,"MEAN_MOTION_DDOT":0},{"OBJECT_NAME":"STARLINK-34264","OBJECT_ID":"2025-120X","EPOCH":"2025-09-09T05:45:48.174624","MEAN_MOTION":15.30208029,"ECCENTRICITY":0.00013435,"INCLINATION":53.1618,"RA_OF_ASC_NODE":239.6295,"ARG_OF_PERICENTER":106.2296,"MEAN_ANOMALY":253.8853,"EPHEMERIS_TYPE":0,"CLASSIFICATION_TYPE":"U","NORAD_CAT_ID":64277,"ELEMENT_SET_NO":999,"REV_AT_EPOCH":1607,"BSTAR":0.00089483447,"MEAN_MOTION_DOT":0.00026243,"MEAN_MOTION_DDOT":0},{"OBJECT_NAME":"STARLINK-34353","OBJECT_ID":"2025-120Y","EPOCH":"2025-09-09T05:59:28.603104","MEAN_MOTION":15.30200984,"ECCENTRICITY":0.000123,"INCLINATION":53.1605,"RA_OF_ASC_NODE":239.6934,"ARG_OF_PERICENTER":70.4265,"MEAN_ANOMALY":289.6869,"EPHEMERIS_TYPE":0,"CLASSIFICATION_TYPE":"U","NORAD_CAT_ID":64278,"ELEMENT_SET_NO":999,"REV_AT_EPOCH":1613,"BSTAR":0.00066585062,"MEAN_MOTION_DOT":0.00019414,"MEAN_MOTION_DDOT":0},{"OBJECT_NAME":"STARLINK-34377","OBJECT_ID":"2025-120Z","EPOCH":"2025-09-09T06:49:27.857280","MEAN_MOTION":15.30217407,"ECCENTRICITY":0.00017437,"INCLINATION":53.1612,"RA_OF_ASC_NODE":239.1954,"ARG_OF_PERICENTER":74.3589,"MEAN_ANOMALY":285.7604,"EPHEMERIS_TYPE":0,"CLASSIFICATION_TYPE":"U","NORAD_CAT_ID":64279,"ELEMENT_SET_NO":999,"REV_AT_EPOCH":1614,"BSTAR":0.00072193234,"MEAN_MOTION_DOT":0.00021095,"MEAN_MOTION_DDOT":0},{"OBJECT_NAME":"STARLINK-34359","OBJECT_ID":"2025-120AA","EPOCH":"2025-09-09T05:53:23.900064","MEAN_MOTION":15.30209355,"ECCENTRICITY":0.00014347,"INCLINATION":53.1575,"RA_OF_ASC_NODE":239.6631,"ARG_OF_PERICENTER":112.8265,"MEAN_ANOMALY":247.2887,"EPHEMERIS_TYPE":0,"CLASSIFICATION_TYPE":"U","NORAD_CAT_ID":64280,"ELEMENT_SET_NO":999,"REV_AT_EPOCH":1613,"BSTAR":0.00073371098,"MEAN_MOTION_DOT":0.0002144,"MEAN_MOTION_DDOT":0},{"OBJECT_NAME":"STARLINK-34366","OBJECT_ID":"2025-120AB","EPOCH":"2025-09-09T03:56:33.235584","MEAN_MOTION":15.30213905,"ECCENTRICITY":0.00020526,"INCLINATION":53.162,"RA_OF_ASC_NODE":239.8686,"ARG_OF_PERICENTER":93.6969,"MEAN_ANOMALY":266.4266,"EPHEMERIS_TYPE":0,"CLASSIFICATION_TYPE":"U","NORAD_CAT_ID":64281,"ELEMENT_SET_NO":999,"REV_AT_EPOCH":1607,"BSTAR":0.00067636229,"MEAN_MOTION_DOT":0.00019735,"MEAN_MOTION_DDOT":0},{"OBJECT_NAME":"STARLINK-34381","OBJECT_ID":"2025-120AC","EPOCH":"2025-09-09T05:42:45.964800","MEAN_MOTION":15.3020105,"ECCENTRICITY":0.00014791,"INCLINATION":53.1607,"RA_OF_ASC_NODE":239.6173,"ARG_OF_PERICENTER":94.7736,"MEAN_ANOMALY":265.3433,"EPHEMERIS_TYPE":0,"CLASSIFICATION_TYPE":"U","NORAD_CAT_ID":64282,"ELEMENT_SET_NO":999,"REV_AT_EPOCH":1611,"BSTAR":0.0012289584,"MEAN_MOTION_DOT":0.00036218,"MEAN_MOTION_DDOT":0},{"OBJECT_NAME":"STARLINK-34448","OBJECT_ID":"2025-123A","EPOCH":"2025-09-09T06:51:23.271264","MEAN_MOTION":15.42755102,"ECCENTRICITY":0.0003265,"INCLINATION":69.9999,"RA_OF_ASC_NODE":294.7357,"ARG_OF_PERICENTER":266.0624,"MEAN_ANOMALY":94.0185,"EPHEMERIS_TYPE":0,"CLASSIFICATION_TYPE":"U","NORAD_CAT_ID":64291,"ELEMENT_SET_NO":999,"REV_AT_EPOCH":1559,"BSTAR":0.0005905455,"MEAN_MOTION_DOT":0.00025837,"MEAN_MOTION_DDOT":0}]
