STARLINK-34319          
1 64268U 25120N   25252.22536588  .00031541  00000+0  10717-2 0  9992
2 64268  53.1616 239.5396 0001349  99.7132 260.4021 15.30223354 16139
STARLINK-34298          
1 64269U 25120P   25252.23708468  .00030116  00000+0  75947-3 0  9996
2 64269  53.1580 239.6166 0001308  75.1171 284.9979 15.39637487 16039
STARLINK-34219          
1 64270U 25120Q   25252.18959960  .00033430  00000+0  11348-2 0  9993
2 64270  53.1578 240.0278 0001265  93.6310 266.4835 15.30226423 16121
STARLINK-34342          
1 64271U 25120R   25252.25004630  .00015260  00000+0  52721-3 0  9999
2 64271  53.1603 239.5447 0001273  61.0936  16.8882 15.30144040  5901
STARLINK-34001          
1 64272U 25120S   25252.25004630  .00004447  00000+0  16225-3 0  9994
2 64272  53.1587 239.7974 0001374 101.4309 208.5864 15.30183480  5850
STARLINK-34334          
1 64273U 25120T   25252.27912435  .00030542  00000+0  76968-3 0  9993
2 64273  53.1580 239.1654 0001282  91.1243 268.9909 15.39651590 16148
STARLINK-34272          
1 64274U 25120U   25252.25280057  .00013158  00000+0  45560-3 0  9998
2 64274  53.1594 239.7134 0001115  85.3200 274.7928 15.30200215 16035
STARLINK-34293          
1 64275U 25120V   25252.25596840  .00009306  00000+0  32586-3 0  9993
2 64275  53.1573 239.7319 0001215  86.7217 273.3922 15.30208451 16075
STARLINK-34350          
1 64276U 25120W   25252.25004630  .00003680  00000+0  13638-3 0  9991
2 64276  53.1591 239.2992 0001617  88.9577 111.1607 15.30188793  5890
STARLINK-34264          
1 64277U 25120X   25252.24014091  .00026243  00000+0  89483-3 0  9994
2 64277  53.1618 239.6295 0001343 106.2296 253.8853 15.30208029 16073
STARLINK-34353          
1 64278U 25120Y   25252.24963661  .00019414  00000+0  66585-3 0  9991
2 64278  53.1605 239.6934 0001230  70.4265 289.6869 15.30200984 16136
STARLINK-34377          
1 64279U 25120Z   25252.28435020  .00021095  00000+0  72193-3 0  9999
2 64279  53.1612 239.1954 0001743  74.3589 285.7604 15.30217407 16146
STARLINK-34359          
1 64280U 25120AA  25252.24541551  .00021440  00000+0  73371-3 0  9997
2 64280  53.1575 239.6631 0001434 112.8265 247.2887 15.30209355 16137
STARLINK-34366          
1 64281U 25120AB  25252.16427356  .00019735  00000+0  67636-3 0  9996
2 64281  53.1620 239.8686 0002052  93.6969 266.4266 15.30213905 16078
STARLINK-34381          
1 64282U 25120AC  25252.23803200  .00036218  00000+0  12290-2 0  9991
2 64282  53.1607 239.6173 0001479  94.7736 265.3433 15.30201050 16116
STARLINK-34448          
1 64291U 25123A   25252.28568601  .00025837  00000+0  59055-3 0  9998
2 64291  69.9999 294.7357 0003265 266.0624  94.0185 15.42755102 15593
